start=new Date('2023-06-22T00:00:00.000Z').valueOf();
sats=[{"APOAPSIS":"540.477","TLE_LINE1":"1 53743U 22107AV  23172.02580304  .00000939  00000-0  77029-4 0  9991","REF_FRAME":"TEME","SITE":"AFETR","RA_OF_ASC_NODE":"40.4492","RCS_SIZE":"LARGE","PERIOD":"95.437","ARG_OF_PERICENTER":"86.1795","NORAD_CAT_ID":"53743","TIME_SYSTEM":"UTC","FILE":"3939133","ECCENTRICITY":"0.00010920","GP_ID":"234434582","MEAN_MOTION":"15.08847945","DECAY_DATE":null,"CENTER_NAME":"EARTH","PERIAPSIS":"538.966","COUNTRY_CODE":"US","MEAN_MOTION_DOT":"0.00000939","MEAN_MOTION_DDOT":"0.0000000000000","TLE_LINE2":"2 53743  53.2168  40.4492 0001092  86.1795 273.9322 15.08847945 44737","LAUNCH_DATE":"2022-09-05","SEMIMAJOR_AXIS":"6917.856","OBJECT_TYPE":"PAYLOAD","OBJECT_ID":"2022-107AV","OBJECT_NAME":"STARLINK-4645","EPOCH":"2023-06-21T00:37:09.382656","ELEMENT_SET_NO":"999","MEAN_ANOMALY":"273.9322","CLASSIFICATION_TYPE":"U","INCLINATION":"53.2168","REV_AT_EPOCH":"4473","MEAN_ELEMENT_THEORY":"SGP4","BSTAR":"0.00007702900000","EPHEMERIS_TYPE":"0"},{"OBJECT_NAME":"STARLINK-4670","OBJECT_ID":"2022-107AW","OBJECT_TYPE":"PAYLOAD","SEMIMAJOR_AXIS":"6917.859","LAUNCH_DATE":"2022-09-05","TLE_LINE2":"2 53744  53.2173  40.3847 0001142  97.3994 262.7128 15.08846844 44735","MEAN_MOTION_DOT":"0.00000917","MEAN_MOTION_DDOT":"0.0000000000000","EPHEMERIS_TYPE":"0","BSTAR":"0.00007569000000","MEAN_ELEMENT_THEORY":"SGP4","INCLINATION":"53.2173","REV_AT_EPOCH":"4473","MEAN_ANOMALY":"262.7128","CLASSIFICATION_TYPE":"U","ELEMENT_SET_NO":"999","EPOCH":"2023-06-21T00:22:37.178976","NORAD_CAT_ID":"53744","ARG_OF_PERICENTER":"97.3994","RCS_SIZE":"LARGE","PERIOD":"95.437","RA_OF_ASC_NODE":"40.3847","REF_FRAME":"TEME","SITE":"AFETR","TLE_LINE1":"1 53744U 22107AW  23172.01570809  .00000917  00000-0  75690-4 0  9998","APOAPSIS":"540.514","PERIAPSIS":"538.934","COUNTRY_CODE":"US","CENTER_NAME":"EARTH","DECAY_DATE":null,"MEAN_MOTION":"15.08846844","GP_ID":"234435332","FILE":"3939133","ECCENTRICITY":"0.00011420","TIME_SYSTEM":"UTC"},{"RA_OF_ASC_NODE":"40.4726","TLE_LINE1":"1 53745U 22107AX  23172.02948814 -.00000012  00000-0  17326-4 0  9994","SITE":"AFETR","REF_FRAME":"TEME","NORAD_CAT_ID":"53745","PERIOD":"95.437","RCS_SIZE":"LARGE","ARG_OF_PERICENTER":"88.3526","APOAPSIS":"540.343","MEAN_MOTION":"15.08848289","FILE":"3939133","ECCENTRICITY":"0.00009010","GP_ID":"234435584","PERIAPSIS":"539.097","COUNTRY_CODE":"US","DECAY_DATE":null,"CENTER_NAME":"EARTH","TIME_SYSTEM":"UTC","OBJECT_TYPE":"PAYLOAD","SEMIMAJOR_AXIS":"6917.855","OBJECT_ID":"2022-107AX","OBJECT_NAME":"STARLINK-4656","MEAN_MOTION_DOT":"-0.00000012","MEAN_MOTION_DDOT":"0.0000000000000","LAUNCH_DATE":"2022-09-05","TLE_LINE2":"2 53745  53.2176  40.4726 0000901  88.3526 271.7569 15.08848289 44733","MEAN_ELEMENT_THEORY":"SGP4","REV_AT_EPOCH":"4473","INCLINATION":"53.2176","BSTAR":"0.00001732600000","EPHEMERIS_TYPE":"0","ELEMENT_SET_NO":"999","MEAN_ANOMALY":"271.7569","CLASSIFICATION_TYPE":"U","EPOCH":"2023-06-21T00:42:27.775296"},{"OBJECT_NAME":"STARLINK-4589","OBJECT_ID":"2022-107AY","OBJECT_TYPE":"PAYLOAD","SEMIMAJOR_AXIS":"6917.855","LAUNCH_DATE":"2022-09-05","TLE_LINE2":"2 53746  53.2163  40.4280 0001021  94.5047 265.6062 15.08848377 44734","MEAN_MOTION_DDOT":"0.0000000000000","MEAN_MOTION_DOT":"0.00001104","BSTAR":"0.00008740600000","EPHEMERIS_TYPE":"0","MEAN_ELEMENT_THEORY":"SGP4","REV_AT_EPOCH":"4473","INCLINATION":"53.2163","CLASSIFICATION_TYPE":"U","MEAN_ANOMALY":"265.6062","ELEMENT_SET_NO":"999","EPOCH":"2023-06-21T00:31:50.898432","NORAD_CAT_ID":"53746","RCS_SIZE":"LARGE","ARG_OF_PERICENTER":"94.5047","PERIOD":"95.437","RA_OF_ASC_NODE":"40.4280","SITE":"AFETR","REF_FRAME":"TEME","TLE_LINE1":"1 53746U 22107AY  23172.02211688  .00001104  00000-0  87406-4 0  9995","APOAPSIS":"540.426","PERIAPSIS":"539.013","COUNTRY_CODE":"US","CENTER_NAME":"EARTH","DECAY_DATE":null,"MEAN_MOTION":"15.08848377","GP_ID":"234435832","ECCENTRICITY":"0.00010210","FILE":"3939133","TIME_SYSTEM":"UTC"},{"EPOCH":"2023-06-21T18:17:00.878208","ELEMENT_SET_NO":"999","CLASSIFICATION_TYPE":"U","MEAN_ANOMALY":"284.8741","EPHEMERIS_TYPE":"0","BSTAR":"0.00024705000000","REV_AT_EPOCH":"4406","INCLINATION":"53.2166","MEAN_ELEMENT_THEORY":"SGP4","TLE_LINE2":"2 53748  53.2166  37.2228 0001140  75.2377 284.8741 15.08841898 44063","LAUNCH_DATE":"2022-09-05","MEAN_MOTION_DOT":"0.00003646","MEAN_MOTION_DDOT":"0.0000000000000","OBJECT_ID":"2022-107BA","OBJECT_NAME":"STARLINK-4669","SEMIMAJOR_AXIS":"6917.875","OBJECT_TYPE":"PAYLOAD","TIME_SYSTEM":"UTC","DECAY_DATE":null,"CENTER_NAME":"EARTH","PERIAPSIS":"538.951","COUNTRY_CODE":"US","FILE":"3939327","ECCENTRICITY":"0.00011400","GP_ID":"234443352","MEAN_MOTION":"15.08841898","APOAPSIS":"540.528","ARG_OF_PERICENTER":"75.2377","RCS_SIZE":"LARGE","PERIOD":"95.437","NORAD_CAT_ID":"53748","TLE_LINE1":"1 53748U 22107BA  23172.76181572  .00003646  00000-0  24705-3 0  9991","REF_FRAME":"TEME","SITE":"AFETR","RA_OF_ASC_NODE":"37.2228"},{"DECAY_DATE":null,"CENTER_NAME":"EARTH","PERIAPSIS":"538.948","COUNTRY_CODE":"US","FILE":"3939327","ECCENTRICITY":"0.00011450","GP_ID":"234443357","MEAN_MOTION":"15.08841576","TIME_SYSTEM":"UTC","RCS_SIZE":"LARGE","PERIOD":"95.437","ARG_OF_PERICENTER":"105.0605","NORAD_CAT_ID":"53749","TLE_LINE1":"1 53749U 22107BB  23172.76549421 -.00000667  00000-0 -23824-4 0  9997","REF_FRAME":"TEME","SITE":"AFETR","RA_OF_ASC_NODE":"37.2080","APOAPSIS":"540.533","EPHEMERIS_TYPE":"0","BSTAR":"-0.00002382400000","REV_AT_EPOCH":"4406","INCLINATION":"53.2166","MEAN_ELEMENT_THEORY":"SGP4","EPOCH":"2023-06-21T18:22:18.699744","ELEMENT_SET_NO":"999","MEAN_ANOMALY":"255.0514","CLASSIFICATION_TYPE":"U","OBJECT_ID":"2022-107BB","OBJECT_NAME":"STARLINK-4680","SEMIMAJOR_AXIS":"6917.876","OBJECT_TYPE":"PAYLOAD","TLE_LINE2":"2 53749  53.2166  37.2080 0001145 105.0605 255.0514 15.08841576 44062","LAUNCH_DATE":"2022-09-05","MEAN_MOTION_DDOT":"0.0000000000000","MEAN_MOTION_DOT":"-0.00000667"},{"APOAPSIS":"540.540","NORAD_CAT_ID":"53750","PERIOD":"95.438","RCS_SIZE":"LARGE","ARG_OF_PERICENTER":"107.1251","RA_OF_ASC_NODE":"37.2682","TLE_LINE1":"1 53750U 22107BC  23172.76918230 -.00001509  00000-0 -76742-4 0  9990","REF_FRAME":"TEME","SITE":"AFETR","TIME_SYSTEM":"UTC","PERIAPSIS":"538.949","COUNTRY_CODE":"US","DECAY_DATE":null,"CENTER_NAME":"EARTH","MEAN_MOTION":"15.08840189","FILE":"3939327","ECCENTRICITY":"0.00011500","GP_ID":"234443362","LAUNCH_DATE":"2022-09-05","TLE_LINE2":"2 53750  53.2171  37.2682 0001150 107.1251 252.9868 15.08840189 44061","MEAN_MOTION_DOT":"-0.00001509","MEAN_MOTION_DDOT":"0.0000000000000","OBJECT_ID":"2022-107BC","OBJECT_NAME":"STARLINK-4612","OBJECT_TYPE":"PAYLOAD","SEMIMAJOR_AXIS":"6917.880","ELEMENT_SET_NO":"999","CLASSIFICATION_TYPE":"U","MEAN_ANOMALY":"252.9868","EPOCH":"2023-06-21T18:27:37.350720","EPHEMERIS_TYPE":"0","BSTAR":"-0.00007674200000","MEAN_ELEMENT_THEORY":"SGP4","INCLINATION":"53.2171","REV_AT_EPOCH":"4406"},{"NORAD_CAT_ID":"53773","ARG_OF_PERICENTER":"98.1670","RCS_SIZE":"LARGE","PERIOD":"95.437","RA_OF_ASC_NODE":"58.6424","SITE":"AFETR","REF_FRAME":"TEME","TLE_LINE1":"1 53773U 22111A   23172.39194011 -.00000095  00000-0  12121-4 0  9991","APOAPSIS":"540.461","PERIAPSIS":"538.980","COUNTRY_CODE":"US","CENTER_NAME":"EARTH","DECAY_DATE":null,"MEAN_MOTION":"15.08848092","GP_ID":"234434584","FILE":"3939133","ECCENTRICITY":"0.00010700","TIME_SYSTEM":"UTC","OBJECT_NAME":"STARLINK-4718","OBJECT_ID":"2022-111A","OBJECT_TYPE":"PAYLOAD","SEMIMAJOR_AXIS":"6917.856","LAUNCH_DATE":"2022-09-11","TLE_LINE2":"2 53773  53.2165  58.6424 0001070  98.1670 261.9444 15.08848092 44044","MEAN_MOTION_DOT":"-0.00000095","MEAN_MOTION_DDOT":"0.0000000000000","BSTAR":"0.00001212100000","EPHEMERIS_TYPE":"0","MEAN_ELEMENT_THEORY":"SGP4","REV_AT_EPOCH":"4404","INCLINATION":"53.2165","CLASSIFICATION_TYPE":"U","MEAN_ANOMALY":"261.9444","ELEMENT_SET_NO":"999","EPOCH":"2023-06-21T09:24:23.625504"},{"MEAN_ANOMALY":"265.5975","CLASSIFICATION_TYPE":"U","ELEMENT_SET_NO":"999","EPOCH":"2023-06-20T23:46:46.758144","MEAN_ELEMENT_THEORY":"SGP4","INCLINATION":"53.2184","REV_AT_EPOCH":"4384","BSTAR":"0.00001286900000","EPHEMERIS_TYPE":"0","MEAN_MOTION_DOT":"-0.00000083","MEAN_MOTION_DDOT":"0.0000000000000","LAUNCH_DATE":"2022-09-11","TLE_LINE2":"2 53774  53.2184  60.4022 0001156  94.5149 265.5975 15.08843773 43844","OBJECT_TYPE":"PAYLOAD","SEMIMAJOR_AXIS":"6917.869","OBJECT_NAME":"STARLINK-4719","OBJECT_ID":"2022-111B","TIME_SYSTEM":"UTC","MEAN_MOTION":"15.08843773","GP_ID":"234435334","ECCENTRICITY":"0.00011560","FILE":"3939133","PERIAPSIS":"538.934","COUNTRY_CODE":"US","CENTER_NAME":"EARTH","DECAY_DATE":null,"APOAPSIS":"540.534","RA_OF_ASC_NODE":"60.4022","SITE":"AFETR","REF_FRAME":"TEME","TLE_LINE1":"1 53774U 22111B   23171.99081896 -.00000083  00000-0  12869-4 0  9999","NORAD_CAT_ID":"53774","RCS_SIZE":"MEDIUM","PERIOD":"95.437","ARG_OF_PERICENTER":"94.5149"},{"SITE":"AFETR","REF_FRAME":"TEME","TLE_LINE1":"1 53775U 22111C   23171.95497988  .00006383  00000-0  41863-3 0  9992","RA_OF_ASC_NODE":"50.9141","ARG_OF_PERICENTER":"92.9818","RCS_SIZE":"LARGE","PERIOD":"95.437","NORAD_CAT_ID":"53775","APOAPSIS":"540.439","GP_ID":"234443509","ECCENTRICITY":"0.00010540","FILE":"3939337","MEAN_MOTION":"15.08851674","CENTER_NAME":"EARTH","DECAY_DATE":null,"PERIAPSIS":"538.981","COUNTRY_CODE":"US","TIME_SYSTEM":"UTC","SEMIMAJOR_AXIS":"6917.845","OBJECT_TYPE":"PAYLOAD","OBJECT_NAME":"STARLINK-4722","OBJECT_ID":"2022-111C","MEAN_MOTION_DDOT":"0.0000000000000","MEAN_MOTION_DOT":"0.00006383","TLE_LINE2":"2 53775  53.2166  50.9141 0001054  92.9818 267.1295 15.08851674 43014","LAUNCH_DATE":"2022-09-11","REV_AT_EPOCH":"4301","INCLINATION":"53.2166","MEAN_ELEMENT_THEORY":"SGP4","EPHEMERIS_TYPE":"0","BSTAR":"0.00041863000000","EPOCH":"2023-06-20T22:55:10.261632","MEAN_ANOMALY":"267.1295","CLASSIFICATION_TYPE":"U","ELEMENT_SET_NO":"999"}];
